OBJECT_NAME,OBJECT_ID,EPOCH,MEAN_MOTION,ECCENTRICITY,INCLINATION,RA_OF_ASC_NODE,ARG_OF_PERICENTER,MEAN_ANOMALY,EPHEMERIS_TYPE,CLASSIFICATION_TYPE,NORAD_CAT_ID,ELEMENT_SET_NO,REV_AT_EPOCH,BSTAR,MEAN_MOTION_DOT,MEAN_MOTION_DDOT
ICEYE-X43,2024-149BZ,2026-06-11T05:21:49.215456,14.99572090,.00079662,97.6772,239.2708,102.1025,258.1092,0,U,60539,999,9922,.26744035E-3,.3232E-4,0
HAWK-10A,2024-149CA,2026-06-11T11:40:07.820832,14.96492827,.00049765,97.6892,238.4952,93.4169,266.7622,0,U,60540,999,9913,.15303023E-3,.1681E-4,0
UMBRA-09,2024-149CB,2026-06-11T04:48:50.932800,15.17858533,.00004582,97.6973,249.3043,301.5403,58.5786,0,U,60541,999,9981,.74677366E-3,.15072E-3,0
QPS-SAR-8 (AMATERU-IV),2024-149CC,2026-06-11T11:20:16.901376,15.04082280,.00050592,97.6673,241.6707,119.0441,241.1292,0,U,60542,999,9941,.34987794E-3,.4785E-4,0
ARCTIC WEATHER SATELLITE,2024-149CD,2026-06-11T04:13:29.173440,14.89796456,.00035165,97.6802,232.8133,115.8401,244.3180,0,U,60543,999,9840,.6880873E-4,.607E-5,0
CAPELLA-15 (ACADIA-5),2024-149CE,2026-06-11T11:44:41.223264,14.92397437,.00051144,97.6781,235.5349,96.5296,263.6506,0,U,60544,999,9900,.36608689E-3,.3694E-4,0
HAWK-10B,2024-149CF,2026-06-11T11:39:54.484992,14.96494673,.00069006,97.6812,237.8561,108.7419,251.4552,0,U,60545,999,9913,.15921108E-3,.1752E-4,0
ICEYE-X39,2024-149CG,2026-06-11T11:21:08.895168,14.99861325,.00046896,97.6764,239.5746,133.4775,226.6839,0,U,60546,999,9926,.24274694E-3,.2949E-4,0
UMBRA-10,2024-149CH,2026-06-11T04:48:12.530592,15.17860045,.00008395,97.6975,249.3315,65.5458,294.5863,0,U,60547,999,9982,.69133925E-3,.13946E-3,0
ICEYE-X33,2024-149CJ,2026-06-11T12:03:22.901760,15.00910295,.00015445,97.7262,241.6742,105.5392,254.6003,0,U,60548,999,9935,.34773071E-3,.4369E-4,0
ICEYE-X40,2024-149CK,2026-06-11T11:46:58.340928,14.97914299,.00065068,97.6808,239.0778,98.2354,261.9606,0,U,60549,999,9922,.17094641E-3,.1956E-4,0
SATELIOT_1,2024-149CL,2026-06-11T05:10:13.118304,14.98039112,.00081329,97.6740,238.2124,97.5935,262.6212,0,U,60550,999,9917,.16904467E-3,.1941E-4,0
BRO-14,2024-149CM,2026-06-11T04:13:46.199424,14.96164768,.00081749,97.6877,238.0620,112.3888,247.8200,0,U,60551,999,9909,.71630176E-4,.75E-5,0
SATELIOT_3,2024-149CN,2026-06-11T12:36:10.753344,14.98033958,.0006096,97.6823,239.3042,99.1225,261.0687,0,U,60552,999,9923,.11827217E-3,.134E-4,0
BRO-15,2024-149CP,2026-06-11T15:02:32.123616,14.96134434,.00096938,97.6801,238.1107,104.7333,255.4963,0,U,60553,999,9917,.11701205E-3,.1261E-4,0
UM5-RIBAT,2024-149CQ,2026-06-11T11:20:36.950496,15.01042898,.00037453,97.6642,240.3499,70.6265,289.5364,0,U,60554,999,9933,.19504453E-3,.2433E-4,0
UM5-EOSAT,2024-149CR,2026-06-11T04:10:48.195552,15.01481268,.00086779,97.6691,240.9817,132.5703,227.6255,0,U,60555,999,9931,.27448012E-3,.3491E-4,0
LASARSAT,2024-247Q,2026-06-09T19:18:52.108128,15.45910909,.0008391,44.9750,303.6854,290.3514,69.6474,0,U,62391,999,8217,.71316E-3,.35312E-3,0
CROCUBE,2024-247T,2026-06-11T13:17:48.007968,15.47864361,.00082834,44.9723,291.2854,303.5524,56.4575,0,U,62394,999,8247,.70104063E-3,.37162E-3,0
TEVEL2-4,2025-052D,2026-06-11T04:23:24.796896,15.34397986,.00046998,97.3916,58.5659,114.3674,245.8060,0,U,63213,999,6919,.46925064E-3,.15571E-3,0
TEVEL2-5,2025-052E,2026-06-11T04:51:58.157280,15.34228834,.00045874,97.3918,58.5347,115.8505,244.3212,0,U,63214,999,6919,.46795208E-3,.15444E-3,0
TEVEL2-6,2025-052F,2026-06-11T05:09:31.549536,15.34192620,.00045066,97.3920,58.5314,115.9282,244.2426,0,U,63215,999,6919,.47617787E-3,.15699E-3,0
TEVEL2-1,2025-052H,2026-06-11T15:12:04.421664,15.33683699,.00044832,97.3895,58.5815,123.9647,236.2022,0,U,63217,999,6924,.51094175E-3,.16584E-3,0
TEVEL2-3,2025-052J,2026-06-11T15:04:38.722080,15.33736393,.00044806,97.3891,58.5978,124.2952,235.8715,0,U,63218,999,6924,.51936053E-3,.16887E-3,0
TEVEL2-2,2025-052K,2026-06-11T15:12:34.161408,15.33691849,.00044377,97.3892,58.5842,124.7997,235.3664,0,U,63219,999,6924,.51153374E-3,.16607E-3,0
TEVEL2-9,2025-052AD,2026-06-11T14:29:45.871296,15.31727154,.0007282,97.3954,57.9412,146.0799,214.0909,0,U,63237,999,6917,.50885777E-3,.15538E-3,0
TEVEL2-7,2025-052AE,2026-06-10T23:46:13.904544,15.31416691,.00073222,97.3955,57.2476,148.6596,211.5083,0,U,63238,999,6907,.49054807E-3,.1483E-3,0
TEVEL2-8,2025-052AF,2026-06-11T10:56:39.917184,15.31412987,.00073879,97.3954,57.6893,147.9653,212.2039,0,U,63239,999,6914,.44363135E-3,.13401E-3,0
FORESAIL-1 PRIME,2025-276DS,2026-06-10T17:41:26.431872,15.18643023,.00038239,97.4203,235.1262,116.6932,243.4694,0,U,66778,999,2942,.21543773E-3,.4395E-4,0
