ICEYE-X43               
1 60539U 24149BZ  26162.22348629  .00003232  00000+0  26744-3 0  9991
2 60539  97.6772 239.2708 0007966 102.1025 258.1092 14.99572090 99228
HAWK-10A                
1 60540U 24149CA  26162.48620163  .00001681  00000+0  15303-3 0  9992
2 60540  97.6892 238.4952 0004976  93.4169 266.7622 14.96492827 99134
UMBRA-09                
1 60541U 24149CB  26162.20058950  .00015072  00000+0  74677-3 0  9990
2 60541  97.6973 249.3043 0000458 301.5403  58.5786 15.17858533 99819
QPS-SAR-8 (AMATERU-IV)  
1 60542U 24149CC  26162.47241784  .00004785  00000+0  34988-3 0  9999
2 60542  97.6673 241.6707 0005059 119.0441 241.1292 15.04082280 99417
ARCTIC WEATHER SATELLITE
1 60543U 24149CD  26162.17603210  .00000607  00000+0  68809-4 0  9992
2 60543  97.6802 232.8133 0003516 115.8401 244.3180 14.89796456 98401
CAPELLA-15 (ACADIA-5)   
1 60544U 24149CE  26162.48936601  .00003694  00000+0  36609-3 0  9991
2 60544  97.6781 235.5349 0005114  96.5296 263.6506 14.92397437 99003
HAWK-10B                
1 60545U 24149CF  26162.48604728  .00001752  00000+0  15921-3 0  9991
2 60545  97.6812 237.8561 0006900 108.7419 251.4552 14.96494673 99131
ICEYE-X39               
1 60546U 24149CG  26162.47301962  .00002949  00000+0  24275-3 0  9996
2 60546  97.6764 239.5746 0004689 133.4775 226.6839 14.99861325 99265
UMBRA-10                
1 60547U 24149CH  26162.20014503  .00013946  00000+0  69134-3 0  9992
2 60547  97.6975 249.3315 0000839  65.5458 294.5863 15.17860045 99829
ICEYE-X33               
1 60548U 24149CJ  26162.50234840  .00004369  00000+0  34773-3 0  9994
2 60548  97.7262 241.6742 0001544 105.5392 254.6003 15.00910295 99351
ICEYE-X40               
1 60549U 24149CK  26162.49095302  .00001956  00000+0  17095-3 0  9998
2 60549  97.6808 239.0778 0006506  98.2354 261.9606 14.97914299 99225
SATELIOT_1              
1 60550U 24149CL  26162.21542961  .00001941  00000+0  16904-3 0  9990
2 60550  97.6740 238.2124 0008132  97.5935 262.6212 14.98039112 99170
BRO-14                  
1 60551U 24149CM  26162.17622916  .00000750  00000+0  71630-4 0  9990
2 60551  97.6877 238.0620 0008174 112.3888 247.8200 14.96164768 99097
SATELIOT_3              
1 60552U 24149CN  26162.52512446  .00001340  00000+0  11827-3 0  9993
2 60552  97.6823 239.3042 0006096  99.1225 261.0687 14.98033958 99230
BRO-15                  
1 60553U 24149CP  26162.62676069  .00001261  00000+0  11701-3 0  9990
2 60553  97.6801 238.1107 0009693 104.7333 255.4963 14.96134434 99171
UM5-RIBAT               
1 60554U 24149CQ  26162.47264989  .00002433  00000+0  19504-3 0  9999
2 60554  97.6642 240.3499 0003745  70.6265 289.5364 15.01042898 99331
UM5-EOSAT               
1 60555U 24149CR  26162.17416893  .00003491  00000+0  27448-3 0  9991
2 60555  97.6691 240.9817 0008677 132.5703 227.6255 15.01481268 99318
LASARSAT                
1 62391U 24247Q   26160.80476977  .00035312  00000+0  71316-3 0  9997
2 62391  44.9750 303.6854 0008391 290.3514  69.6474 15.45910909 82173
CROCUBE                 
1 62394U 24247T   26162.55402787  .00037162  00000+0  70104-3 0  9991
2 62394  44.9723 291.2854 0008283 303.5524  56.4575 15.47864361 82477
TEVEL2-4                
1 63213U 25052D   26162.18292589  .00015571  00000+0  46925-3 0  9997
2 63213  97.3916  58.5659 0004699 114.3674 245.8060 15.34397986 69199
TEVEL2-5                
1 63214U 25052E   26162.20275645  .00015444  00000+0  46795-3 0  9999
2 63214  97.3918  58.5347 0004587 115.8505 244.3212 15.34228834 69199
TEVEL2-6                
1 63215U 25052F   26162.21494849  .00015699  00000+0  47618-3 0  9997
2 63215  97.3920  58.5314 0004506 115.9282 244.2426 15.34192620 69190
TEVEL2-1                
1 63217U 25052H   26162.63338451  .00016584  00000+0  51094-3 0  9998
2 63217  97.3895  58.5815 0004483 123.9647 236.2022 15.33683699 69246
TEVEL2-3                
1 63218U 25052J   26162.62822595  .00016887  00000+0  51936-3 0  9996
2 63218  97.3891  58.5978 0004480 124.2952 235.8715 15.33736393 69247
TEVEL2-2                
1 63219U 25052K   26162.63372872  .00016607  00000+0  51153-3 0  9997
2 63219  97.3892  58.5842 0004437 124.7997 235.3664 15.33691849 69249
TEVEL2-9                
1 63237U 25052AD  26162.60400314  .00015538  00000+0  50886-3 0  9991
2 63237  97.3954  57.9412 0007282 146.0799 214.0909 15.31727154 69177
TEVEL2-7                
1 63238U 25052AE  26161.99043871  .00014830  00000+0  49055-3 0  9994
2 63238  97.3955  57.2476 0007322 148.6596 211.5083 15.31416691 69075
TEVEL2-8                
1 63239U 25052AF  26162.45601756  .00013401  00000+0  44363-3 0  9999
2 63239  97.3954  57.6893 0007387 147.9653 212.2039 15.31412987 69140
FORESAIL-1 PRIME        
1 66778U 25276DS  26161.73711148  .00004395  00000+0  21544-3 0  9993
2 66778  97.4203 235.1262 0003823 116.6932 243.4694 15.18643023 29428
